IRIDIUM 26              
1 24903U 97043A   25281.32614470  .00000634  00000+0  20654-3 0  9998
2 24903  86.3932  63.0473 0002298  89.1568 270.9893 14.37242306472993
IRIDIUM 22              
1 24907U 97043E   25281.14074627  .00000566  00000+0  18806-3 0  9996
2 24907  86.3929  66.7639 0002141  87.6042 272.5400 14.36043818472981
DUMMY MASS 1            
1 24925U 97048A   25281.19999795  .00000675  00000+0  72013-4 0  9990
2 24925  86.3295  83.0374 0008899 101.5604 258.6620 14.87087747521924
DUMMY MASS 2            
1 24926U 97048B   25281.18099597  .00000686  00000+0  73697-4 0  9992
2 24926  86.3294  84.6762 0009547 111.0200 249.2047 14.86838846521697
IRIDIUM 29              
1 24944U 97051A   25280.98376995  .00000687  00000+0  22714-3 0  9997
2 24944  86.3897  96.5622 0001907  88.1977 271.9439 14.36566438469463
IRIDIUM 33              
1 24946U 97051C   25281.22960401  .00000472  00000+0  15886-3 0  9992
2 24946  86.3814  95.7289 0009895  73.6777 286.5507 14.34964478468950
IRIDIUM 28              
1 24948U 97051E   25281.23409639  .00000634  00000+0  20533-3 0  9991
2 24948  86.3903  93.9058 0002658  85.6890 274.4612 14.37472874470081
IRIDIUM 36              
1 24967U 97056C   25281.11003499  .00000520  00000+0  16639-3 0  9994
2 24967  86.3942 125.5895 0002261  81.4034 278.7420 14.37696979468445
